{
    "links": {
        "self": "http://www.neowsapp.com/rest/v1/neo/3843602?api_key=iIulBulltgU6a56xZRHN4H3l9WmuAYTsLGpBGhQ2"
    },
    "id": "3843602",
    "neo_reference_id": "3843602",
    "name": "(2019 QP1)",
    "designation": "2019 QP1",
    "nasa_jpl_url": "http://ssd.jpl.nasa.gov/sbdb.cgi?sstr=3843602",
    "absolute_magnitude_h": 26.5,
    "estimated_diameter": {
        "kilometers": {
            "estimated_diameter_min": 0.0133215567,
            "estimated_diameter_max": 0.0297879063
        },
        "meters": {
            "estimated_diameter_min": 13.3215566698,
            "estimated_diameter_max": 29.7879062798
        },
        "miles": {
            "estimated_diameter_min": 0.008277629,
            "estimated_diameter_max": 0.0185093411
        },
        "feet": {
            "estimated_diameter_min": 43.7058959846,
            "estimated_diameter_max": 97.7293544391
        }
    },
    "is_potentially_hazardous_asteroid": false,
    "close_approach_data": [
        {
            "close_approach_date": "2019-08-31",
            "close_approach_date_full": "2019-Aug-31 02:15",
            "epoch_date_close_approach": 1567217700000,
            "relative_velocity": {
                "kilometers_per_second": "8.9421048789",
                "kilometers_per_hour": "32191.5775640672",
                "miles_per_hour": "20002.5944036283"
            },
            "miss_distance": {
                "astronomical": "0.0268918595",
                "lunar": "10.4609333455",
                "kilometers": "4022964.901539265",
                "miles": "2499754.474661257"
            },
            "orbiting_body": "Earth"
        },
        {
            "close_approach_date": "2021-08-05",
            "close_approach_date_full": "2021-Aug-05 04:08",
            "epoch_date_close_approach": 1628136480000,
            "relative_velocity": {
                "kilometers_per_second": "18.6278551148",
                "kilometers_per_hour": "67060.2784131767",
                "miles_per_hour": "41668.6491062319"
            },
            "miss_distance": {
                "astronomical": "0.3434769417",
                "lunar": "133.6125303213",
                "kilometers": "51383418.872434179",
                "miles": "31928175.9581385102"
            },
            "orbiting_body": "Earth"
        }
    ],
    "orbital_data": {
        "orbit_id": "2",
        "orbit_determination_date": "2019-08-27 05:31:58",
        "first_observation_date": "2019-08-23",
        "last_observation_date": "2019-08-27",
        "data_arc_in_days": 4,
        "observations_used": 13,
        "orbit_uncertainty": "8",
        "minimum_orbit_intersection": ".0268872",
        "jupiter_tisserand_invariant": "4.332",
        "epoch_osculation": "2458719.5",
        "eccentricity": ".4027455492021772",
        "semi_major_axis": "1.559116718352964",
        "inclination": "6.838099109122705",
        "ascending_node_longitude": "325.9727785179985",
        "orbital_period": "711.0765712298801",
        "perihelion_distance": ".9311893993496035",
        "perihelion_argument": "57.72394639596612",
        "aphelion_distance": "2.187044037356325",
        "perihelion_time": "2458764.699369675452",
        "mean_anomaly": "337.1167076212074",
        "mean_motion": ".506274590621574",
        "equinox": "J2000",
        "orbit_class": {
            "orbit_class_type": "APO",
            "orbit_class_description": "Near-Earth asteroid orbits which cross the Earth’s orbit similar to that of 1862 Apollo",
            "orbit_class_range": "a (semi-major axis) > 1.0 AU; q (perihelion) < 1.017 AU"
        }
    },
    "is_sentry_object": false
}